[{"OBJECT_NAME":"UTMN 2 (RS27S)","OBJECT_ID":"2023-091AP","EPOCH":"2026-03-09T23:09:07.917408","MEAN_MOTION":15.29495965,"ECCENTRICITY":0.00097379,"INCLINATION":97.5194,"RA_OF_ASC_NODE":134.949,"ARG_OF_PERICENTER":76.0788,"MEAN_ANOMALY":284.1534,"EPHEMERIS_TYPE":0,"CLASSIFICATION_TYPE":"U","NORAD_CAT_ID":57203,"ELEMENT_SET_NO":999,"REV_AT_EPOCH":14936,"BSTAR":0.00056135701,"MEAN_MOTION_DOT":0.00016013,"MEAN_MOTION_DDOT":0},{"OBJECT_NAME":"STARLINK-32541","OBJECT_ID":"2024-207E","EPOCH":"2026-03-09T00:01:24.014496","MEAN_MOTION":15.2760625,"ECCENTRICITY":0.00024528,"INCLINATION":43.0043,"RA_OF_ASC_NODE":289.3603,"ARG_OF_PERICENTER":271.0814,"MEAN_ANOMALY":88.9756,"EPHEMERIS_TYPE":0,"CLASSIFICATION_TYPE":"U","NORAD_CAT_ID":61916,"ELEMENT_SET_NO":999,"REV_AT_EPOCH":7457,"BSTAR":0.0014287403,"MEAN_MOTION_DOT":0.00039296,"MEAN_MOTION_DDOT":0}]
